[{"OBJECT_NAME":"HULIANWANG DIGUI-17","OBJECT_ID":"2025-030G","EPOCH":"2026-03-05T19:31:22.689120","MEAN_MOTION":13.29338265,"ECCENTRICITY":7.59e-5,"INCLINATION":50.0046,"RA_OF_ASC_NODE":246.3287,"ARG_OF_PERICENTER":159.539,"MEAN_ANOMALY":200.5513,"EPHEMERIS_TYPE":0,"CLASSIFICATION_TYPE":"U","NORAD_CAT_ID":62977,"ELEMENT_SET_NO":999,"REV_AT_EPOCH":5211,"BSTAR":8.0187e-5,"MEAN_MOTION_DOT":-8.7e-7,"MEAN_MOTION_DDOT":0},{"OBJECT_NAME":"HULIANWANG DIGUI-18","OBJECT_ID":"2025-030H","EPOCH":"2026-03-05T19:19:19.250688","MEAN_MOTION":13.2933828,"ECCENTRICITY":7.71e-5,"INCLINATION":50.0051,"RA_OF_ASC_NODE":246.2953,"ARG_OF_PERICENTER":159.8047,"MEAN_ANOMALY":200.2856,"EPHEMERIS_TYPE":0,"CLASSIFICATION_TYPE":"U","NORAD_CAT_ID":62978,"ELEMENT_SET_NO":999,"REV_AT_EPOCH":5211,"BSTAR":8.0778e-5,"MEAN_MOTION_DOT":-8.7e-7,"MEAN_MOTION_DDOT":0},{"OBJECT_NAME":"HULIANWANG DIGUI-19","OBJECT_ID":"2025-030J","EPOCH":"2026-03-05T20:07:08.543712","MEAN_MOTION":13.29341507,"ECCENTRICITY":8.16e-5,"INCLINATION":50.0036,"RA_OF_ASC_NODE":246.4241,"ARG_OF_PERICENTER":155.2252,"MEAN_ANOMALY":204.866,"EPHEMERIS_TYPE":0,"CLASSIFICATION_TYPE":"U","NORAD_CAT_ID":62979,"ELEMENT_SET_NO":999,"REV_AT_EPOCH":5211,"BSTAR":9.6814e-5,"MEAN_MOTION_DOT":-7.9e-7,"MEAN_MOTION_DDOT":0},{"OBJECT_NAME":"HULIANWANG DIGUI-20","OBJECT_ID":"2025-086A","EPOCH":"2026-03-05T19:49:18.651648","MEAN_MOTION":13.24420245,"ECCENTRICITY":0.0001744,"INCLINATION":86.5125,"RA_OF_ASC_NODE":347.938,"ARG_OF_PERICENTER":91.661,"MEAN_ANOMALY":268.4724,"EPHEMERIS_TYPE":0,"CLASSIFICATION_TYPE":"U","NORAD_CAT_ID":63687,"ELEMENT_SET_NO":999,"REV_AT_EPOCH":4119,"BSTAR":0.00013406,"MEAN_MOTION_DOT":7.2e-7,"MEAN_MOTION_DDOT":0},{"OBJECT_NAME":"HULIANWANG DIGUI-21","OBJECT_ID":"2025-086B","EPOCH":"2026-03-05T20:00:05.912064","MEAN_MOTION":13.2442185,"ECCENTRICITY":0.0001634,"INCLINATION":86.5154,"RA_OF_ASC_NODE":347.9649,"ARG_OF_PERICENTER":94.5653,"MEAN_ANOMALY":265.5667,"EPHEMERIS_TYPE":0,"CLASSIFICATION_TYPE":"U","NORAD_CAT_ID":63688,"ELEMENT_SET_NO":999,"REV_AT_EPOCH":4118,"BSTAR":0.00010648,"MEAN_MOTION_DOT":6.0e-7,"MEAN_MOTION_DDOT":0},{"OBJECT_NAME":"HULIANWANG DIGUI-22","OBJECT_ID":"2025-086C","EPOCH":"2026-03-05T20:10:59.447712","MEAN_MOTION":13.24421605,"ECCENTRICITY":0.0001808,"INCLINATION":86.5119,"RA_OF_ASC_NODE":347.8653,"ARG_OF_PERICENTER":91.7295,"MEAN_ANOMALY":268.4046,"EPHEMERIS_TYPE":0,"CLASSIFICATION_TYPE":"U","NORAD_CAT_ID":63689,"ELEMENT_SET_NO":999,"REV_AT_EPOCH":4118,"BSTAR":0.00011885,"MEAN_MOTION_DOT":6.6e-7,"MEAN_MOTION_DDOT":0},{"OBJECT_NAME":"HULIANWANG DIGUI-23","OBJECT_ID":"2025-086D","EPOCH":"2026-03-05T18:43:53.109120","MEAN_MOTION":13.244223,"ECCENTRICITY":0.000175,"INCLINATION":86.516,"RA_OF_ASC_NODE":348.0224,"ARG_OF_PERICENTER":88.0485,"MEAN_ANOMALY":272.0849,"EPHEMERIS_TYPE":0,"CLASSIFICATION_TYPE":"U","NORAD_CAT_ID":63690,"ELEMENT_SET_NO":999,"REV_AT_EPOCH":4117,"BSTAR":0.00010485,"MEAN_MOTION_DOT":6.0e-7,"MEAN_MOTION_DDOT":0},{"OBJECT_NAME":"HULIANWANG DIGUI-24","OBJECT_ID":"2025-086E","EPOCH":"2026-03-05T18:54:50.868000","MEAN_MOTION":13.24420424,"ECCENTRICITY":0.0001786,"INCLINATION":86.5166,"RA_OF_ASC_NODE":348.0465,"ARG_OF_PERICENTER":92.3014,"MEAN_ANOMALY":267.8325,"EPHEMERIS_TYPE":0,"CLASSIFICATION_TYPE":"U","NORAD_CAT_ID":63691,"ELEMENT_SET_NO":999,"REV_AT_EPOCH":4117,"BSTAR":0.00014479,"MEAN_MOTION_DOT":7.7e-7,"MEAN_MOTION_DDOT":0},{"OBJECT_NAME":"HULIANWANG DIGUI-25","OBJECT_ID":"2025-086F","EPOCH":"2026-03-05T19:05:41.587872","MEAN_MOTION":13.24421817,"ECCENTRICITY":0.0001685,"INCLINATION":86.5105,"RA_OF_ASC_NODE":347.8655,"ARG_OF_PERICENTER":91.3029,"MEAN_ANOMALY":268.8298,"EPHEMERIS_TYPE":0,"CLASSIFICATION_TYPE":"U","NORAD_CAT_ID":63692,"ELEMENT_SET_NO":999,"REV_AT_EPOCH":4117,"BSTAR":0.00015945,"MEAN_MOTION_DOT":8.3e-7,"MEAN_MOTION_DDOT":0},{"OBJECT_NAME":"HULIANWANG DIGUI-26","OBJECT_ID":"2025-086G","EPOCH":"2026-03-05T20:21:41.397120","MEAN_MOTION":13.24421343,"ECCENTRICITY":0.0001766,"INCLINATION":86.5154,"RA_OF_ASC_NODE":347.9745,"ARG_OF_PERICENTER":96.4208,"MEAN_ANOMALY":263.7127,"EPHEMERIS_TYPE":0,"CLASSIFICATION_TYPE":"U","NORAD_CAT_ID":63693,"ELEMENT_SET_NO":999,"REV_AT_EPOCH":4118,"BSTAR":8.9461e-5,"MEAN_MOTION_DOT":5.3e-7,"MEAN_MOTION_DDOT":0},{"OBJECT_NAME":"HULIANWANG DIGUI-27","OBJECT_ID":"2025-086H","EPOCH":"2026-03-05T19:16:41.179296","MEAN_MOTION":13.24420187,"ECCENTRICITY":0.0001794,"INCLINATION":86.5115,"RA_OF_ASC_NODE":347.8975,"ARG_OF_PERICENTER":91.3252,"MEAN_ANOMALY":268.8088,"EPHEMERIS_TYPE":0,"CLASSIFICATION_TYPE":"U","NORAD_CAT_ID":63694,"ELEMENT_SET_NO":999,"REV_AT_EPOCH":4117,"BSTAR":0.00016563,"MEAN_MOTION_DOT":8.6e-7,"MEAN_MOTION_DDOT":0},{"OBJECT_NAME":"HULIANWANG DIGUI-28","OBJECT_ID":"2025-086J","EPOCH":"2026-03-05T19:38:19.921632","MEAN_MOTION":13.24421537,"ECCENTRICITY":0.0001794,"INCLINATION":86.508,"RA_OF_ASC_NODE":347.7967,"ARG_OF_PERICENTER":91.3867,"MEAN_ANOMALY":268.7472,"EPHEMERIS_TYPE":0,"CLASSIFICATION_TYPE":"U","NORAD_CAT_ID":63695,"ELEMENT_SET_NO":999,"REV_AT_EPOCH":4117,"BSTAR":0.00015913,"MEAN_MOTION_DOT":8.3e-7,"MEAN_MOTION_DDOT":0},{"OBJECT_NAME":"HULIANWANG DIGUI-29","OBJECT_ID":"2025-086K","EPOCH":"2026-03-05T19:27:34.016832","MEAN_MOTION":13.2442038,"ECCENTRICITY":0.0001677,"INCLINATION":86.5107,"RA_OF_ASC_NODE":347.8795,"ARG_OF_PERICENTER":91.8897,"MEAN_ANOMALY":268.2429,"EPHEMERIS_TYPE":0,"CLASSIFICATION_TYPE":"U","NORAD_CAT_ID":63696,"ELEMENT_SET_NO":999,"REV_AT_EPOCH":4117,"BSTAR":0.00018161,"MEAN_MOTION_DOT":9.3e-7,"MEAN_MOTION_DDOT":0},{"OBJECT_NAME":"HULIANWANG DIGUI-30","OBJECT_ID":"2025-121A","EPOCH":"2026-03-05T17:49:23.307168","MEAN_MOTION":13.24423406,"ECCENTRICITY":0.0001992,"INCLINATION":86.4949,"RA_OF_ASC_NODE":48.4568,"ARG_OF_PERICENTER":78.3388,"MEAN_ANOMALY":281.7969,"EPHEMERIS_TYPE":0,"CLASSIFICATION_TYPE":"U","NORAD_CAT_ID":64283,"ELEMENT_SET_NO":999,"REV_AT_EPOCH":3646,"BSTAR":9.8283e-5,"MEAN_MOTION_DOT":5.7e-7,"MEAN_MOTION_DDOT":0},{"OBJECT_NAME":"HULIANWANG DIGUI-31","OBJECT_ID":"2025-121B","EPOCH":"2026-03-05T19:27:37.228320","MEAN_MOTION":13.2441958,"ECCENTRICITY":0.0002013,"INCLINATION":86.4969,"RA_OF_ASC_NODE":48.4844,"ARG_OF_PERICENTER":78.6624,"MEAN_ANOMALY":281.4736,"EPHEMERIS_TYPE":0,"CLASSIFICATION_TYPE":"U","NORAD_CAT_ID":64284,"ELEMENT_SET_NO":999,"REV_AT_EPOCH":3647,"BSTAR":6.6231e-5,"MEAN_MOTION_DOT":4.3e-7,"MEAN_MOTION_DDOT":0},{"OBJECT_NAME":"HULIANWANG DIGUI-32","OBJECT_ID":"2025-121C","EPOCH":"2026-03-05T19:16:13.552032","MEAN_MOTION":13.24425224,"ECCENTRICITY":0.0002009,"INCLINATION":86.491,"RA_OF_ASC_NODE":48.3163,"ARG_OF_PERICENTER":80.6452,"MEAN_ANOMALY":279.491,"EPHEMERIS_TYPE":0,"CLASSIFICATION_TYPE":"U","NORAD_CAT_ID":64285,"ELEMENT_SET_NO":999,"REV_AT_EPOCH":3647,"BSTAR":2.8569e-5,"MEAN_MOTION_DOT":2.7e-7,"MEAN_MOTION_DDOT":0}]
