HULIANWANG DIGUI-17     
1 62977U 25030G   26064.81345705 -.00000087  00000+0  80187-4 0  9995
2 62977  50.0046 246.3287 0000759 159.5390 200.5513 13.29338265 52110
HULIANWANG DIGUI-18     
1 62978U 25030H   26064.80508392 -.00000087  00000+0  80778-4 0  9994
2 62978  50.0051 246.2953 0000771 159.8047 200.2856 13.29338280 52116
HULIANWANG DIGUI-19     
1 62979U 25030J   26064.83829333 -.00000079  00000+0  96814-4 0  9998
2 62979  50.0036 246.4241 0000816 155.2252 204.8660 13.29341507 52119
HULIANWANG DIGUI-20     
1 63687U 25086A   26064.82591032  .00000072  00000+0  13406-3 0  9994
2 63687  86.5125 347.9380 0001744  91.6610 268.4724 13.24420245 41197
HULIANWANG DIGUI-21     
1 63688U 25086B   26064.83340176  .00000060  00000+0  10648-3 0  9999
2 63688  86.5154 347.9649 0001634  94.5653 265.5667 13.24421850 41181
HULIANWANG DIGUI-22     
1 63689U 25086C   26064.84096583  .00000066  00000+0  11885-3 0  9991
2 63689  86.5119 347.8653 0001808  91.7295 268.4046 13.24421605 41182
HULIANWANG DIGUI-23     
1 63690U 25086D   26064.78047580  .00000060  00000+0  10485-3 0  9998
2 63690  86.5160 348.0224 0001750  88.0485 272.0849 13.24422300 41177
HULIANWANG DIGUI-24     
1 63691U 25086E   26064.78808875  .00000077  00000+0  14479-3 0  9996
2 63691  86.5166 348.0465 0001786  92.3014 267.8325 13.24420424 41172
HULIANWANG DIGUI-25     
1 63692U 25086F   26064.79562023  .00000083  00000+0  15945-3 0  9996
2 63692  86.5105 347.8655 0001685  91.3029 268.8298 13.24421817 41174
HULIANWANG DIGUI-26     
1 63693U 25086G   26064.84839580  .00000053  00000+0  89461-4 0  9990
2 63693  86.5154 347.9745 0001766  96.4208 263.7127 13.24421343 41185
HULIANWANG DIGUI-27     
1 63694U 25086H   26064.80325439  .00000086  00000+0  16563-3 0  9998
2 63694  86.5115 347.8975 0001794  91.3252 268.8088 13.24420187 41177
HULIANWANG DIGUI-28     
1 63695U 25086J   26064.81828613  .00000083  00000+0  15913-3 0  9997
2 63695  86.5080 347.7967 0001794  91.3867 268.7472 13.24421537 41177
HULIANWANG DIGUI-29     
1 63696U 25086K   26064.81081038  .00000093  00000+0  18161-3 0  9999
2 63696  86.5107 347.8795 0001677  91.8897 268.2429 13.24420380 41178
HULIANWANG DIGUI-30     
1 64283U 25121A   26064.74263087  .00000057  00000+0  98283-4 0  9994
2 64283  86.4949  48.4568 0001992  78.3388 281.7969 13.24423406 36468
HULIANWANG DIGUI-31     
1 64284U 25121B   26064.81084755  .00000043  00000+0  66231-4 0  9999
2 64284  86.4969  48.4844 0002013  78.6624 281.4736 13.24419580 36477
HULIANWANG DIGUI-32     
1 64285U 25121C   26064.80293463  .00000027  00000+0  28569-4 0  9991
2 64285  86.4910  48.3163 0002009  80.6452 279.4910 13.24425224 36477
